[
    {
        "OBJECT_NAME": "ONEWEB-0330",
        "OBJECT_ID": "2021-075AK",
        "EPOCH": "2025-12-06T21:53:42.857376",
        "MEAN_MOTION": 13.17649113,
        "ECCENTRICITY": 0.00015195,
        "INCLINATION": 87.9116,
        "RA_OF_ASC_NODE": 44.1142,
        "ARG_OF_PERICENTER": 97.1898,
        "MEAN_ANOMALY": 262.9406,
        "EPHEMERIS_TYPE": 0,
        "CLASSIFICATION_TYPE": "U",
        "NORAD_CAT_ID": 49108,
        "ELEMENT_SET_NO": 999,
        "REV_AT_EPOCH": 20830,
        "BSTAR": 0.00023198588,
        "MEAN_MOTION_DOT": 1.03e-06,
        "MEAN_MOTION_DDOT": 0
    },
    {
        "OBJECT_NAME": "ONEWEB-0292",
        "OBJECT_ID": "2021-083A",
        "EPOCH": "2025-12-06T14:07:35.505696",
        "MEAN_MOTION": 13.13470635,
        "ECCENTRICITY": 0.00016756,
        "INCLINATION": 87.8972,
        "RA_OF_ASC_NODE": 358.5418,
        "ARG_OF_PERICENTER": 97.7011,
        "MEAN_ANOMALY": 262.4308,
        "EPHEMERIS_TYPE": 0,
        "CLASSIFICATION_TYPE": "U",
        "NORAD_CAT_ID": 49186,
        "ELEMENT_SET_NO": 999,
        "REV_AT_EPOCH": 20564,
        "BSTAR": 0.0010518006,
        "MEAN_MOTION_DOT": 3.97e-06,
        "MEAN_MOTION_DDOT": 0
    },
    {
        "OBJECT_NAME": "ONEWEB-0303",
        "OBJECT_ID": "2021-083B",
        "EPOCH": "2025-12-06T19:19:42.187296",
        "MEAN_MOTION": 13.18685842,
        "ECCENTRICITY": 0.00017203,
        "INCLINATION": 87.9183,
        "RA_OF_ASC_NODE": 13.6661,
        "ARG_OF_PERICENTER": 100.8842,
        "MEAN_ANOMALY": 259.2484,
        "EPHEMERIS_TYPE": 0,
        "CLASSIFICATION_TYPE": "U",
        "NORAD_CAT_ID": 49187,
        "ELEMENT_SET_NO": 999,
        "REV_AT_EPOCH": 20462,
        "BSTAR": 0.00034248284,
        "MEAN_MOTION_DOT": 1.48e-06,
        "MEAN_MOTION_DDOT": 0
    },
    {
        "OBJECT_NAME": "ONEWEB-0306",
        "OBJECT_ID": "2021-083C",
        "EPOCH": "2025-12-06T15:26:55.761216",
        "MEAN_MOTION": 13.18684899,
        "ECCENTRICITY": 0.00018788,
        "INCLINATION": 87.9186,
        "RA_OF_ASC_NODE": 13.6828,
        "ARG_OF_PERICENTER": 88.7004,
        "MEAN_ANOMALY": 271.4343,
        "EPHEMERIS_TYPE": 0,
        "CLASSIFICATION_TYPE": "U",
        "NORAD_CAT_ID": 49188,
        "ELEMENT_SET_NO": 999,
        "REV_AT_EPOCH": 20464,
        "BSTAR": -5.321191e-05,
        "MEAN_MOTION_DOT": -8e-08,
        "MEAN_MOTION_DDOT": 0
    },
    {
        "OBJECT_NAME": "ONEWEB-0307",
        "OBJECT_ID": "2021-083D",
        "EPOCH": "2025-12-06T23:07:32.357280",
        "MEAN_MOTION": 13.13470131,
        "ECCENTRICITY": 0.00017563,
        "INCLINATION": 87.8969,
        "RA_OF_ASC_NODE": 358.4588,
        "ARG_OF_PERICENTER": 93.3566,
        "MEAN_ANOMALY": 266.7764,
        "EPHEMERIS_TYPE": 0,
        "CLASSIFICATION_TYPE": "U",
        "NORAD_CAT_ID": 49189,
        "ELEMENT_SET_NO": 999,
        "REV_AT_EPOCH": 20569,
        "BSTAR": 0.0010214293,
        "MEAN_MOTION_DOT": 3.86e-06,
        "MEAN_MOTION_DDOT": 0
    },
    {
        "OBJECT_NAME": "ONEWEB-0320",
        "OBJECT_ID": "2021-083E",
        "EPOCH": "2025-12-06T19:16:09.315840",
        "MEAN_MOTION": 13.18684321,
        "ECCENTRICITY": 0.00017898,
        "INCLINATION": 87.918,
        "RA_OF_ASC_NODE": 13.6804,
        "ARG_OF_PERICENTER": 94.9999,
        "MEAN_ANOMALY": 265.1337,
        "EPHEMERIS_TYPE": 0,
        "CLASSIFICATION_TYPE": "U",
        "NORAD_CAT_ID": 49190,
        "ELEMENT_SET_NO": 999,
        "REV_AT_EPOCH": 20462,
        "BSTAR": 6.6386656e-05,
        "MEAN_MOTION_DOT": 3.9e-07,
        "MEAN_MOTION_DDOT": 0
    },
    {
        "OBJECT_NAME": "ONEWEB-0321",
        "OBJECT_ID": "2021-083F",
        "EPOCH": "2025-12-06T22:19:29.427744",
        "MEAN_MOTION": 13.2077039,
        "ECCENTRICITY": 0.00019767,
        "INCLINATION": 87.9194,
        "RA_OF_ASC_NODE": 312.7755,
        "ARG_OF_PERICENTER": 76.3679,
        "MEAN_ANOMALY": 283.7675,
        "EPHEMERIS_TYPE": 0,
        "CLASSIFICATION_TYPE": "U",
        "NORAD_CAT_ID": 49191,
        "ELEMENT_SET_NO": 999,
        "REV_AT_EPOCH": 21145,
        "BSTAR": -4.5082435e-05,
        "MEAN_MOTION_DOT": -5e-08,
        "MEAN_MOTION_DDOT": 0
    },
    {
        "OBJECT_NAME": "ONEWEB-0322",
        "OBJECT_ID": "2021-083G",
        "EPOCH": "2025-12-06T21:11:45.030912",
        "MEAN_MOTION": 13.13471212,
        "ECCENTRICITY": 0.00021645,
        "INCLINATION": 87.8972,
        "RA_OF_ASC_NODE": 358.4766,
        "ARG_OF_PERICENTER": 84.3918,
        "MEAN_ANOMALY": 275.7458,
        "EPHEMERIS_TYPE": 0,
        "CLASSIFICATION_TYPE": "U",
        "NORAD_CAT_ID": 49192,
        "ELEMENT_SET_NO": 999,
        "REV_AT_EPOCH": 20567,
        "BSTAR": 0.0010955059,
        "MEAN_MOTION_DOT": 4.13e-06,
        "MEAN_MOTION_DDOT": 0
    },
    {
        "OBJECT_NAME": "ONEWEB-0324",
        "OBJECT_ID": "2021-083H",
        "EPOCH": "2025-12-06T18:55:56.522496",
        "MEAN_MOTION": 13.18685419,
        "ECCENTRICITY": 0.00016323,
        "INCLINATION": 87.9183,
        "RA_OF_ASC_NODE": 13.6606,
        "ARG_OF_PERICENTER": 92.1618,
        "MEAN_ANOMALY": 267.9701,
        "EPHEMERIS_TYPE": 0,
        "CLASSIFICATION_TYPE": "U",
        "NORAD_CAT_ID": 49193,
        "ELEMENT_SET_NO": 999,
        "REV_AT_EPOCH": 20464,
        "BSTAR": 5.874094e-05,
        "MEAN_MOTION_DOT": 3.6e-07,
        "MEAN_MOTION_DDOT": 0
    },
    {
        "OBJECT_NAME": "ONEWEB-0325",
        "OBJECT_ID": "2021-083J",
        "EPOCH": "2025-12-06T19:00:42.280992",
        "MEAN_MOTION": 13.18686389,
        "ECCENTRICITY": 0.00018399,
        "INCLINATION": 87.9184,
        "RA_OF_ASC_NODE": 13.6789,
        "ARG_OF_PERICENTER": 94.8016,
        "MEAN_ANOMALY": 265.3327,
        "EPHEMERIS_TYPE": 0,
        "CLASSIFICATION_TYPE": "U",
        "NORAD_CAT_ID": 49194,
        "ELEMENT_SET_NO": 999,
        "REV_AT_EPOCH": 20465,
        "BSTAR": 0.00018505314,
        "MEAN_MOTION_DOT": 8.6e-07,
        "MEAN_MOTION_DDOT": 0
    },
    {
        "OBJECT_NAME": "ONEWEB-0326",
        "OBJECT_ID": "2021-083K",
        "EPOCH": "2025-12-06T19:22:16.602240",
        "MEAN_MOTION": 13.18685013,
        "ECCENTRICITY": 0.00018093,
        "INCLINATION": 87.9183,
        "RA_OF_ASC_NODE": 13.6631,
        "ARG_OF_PERICENTER": 105.4265,
        "MEAN_ANOMALY": 254.7067,
        "EPHEMERIS_TYPE": 0,
        "CLASSIFICATION_TYPE": "U",
        "NORAD_CAT_ID": 49195,
        "ELEMENT_SET_NO": 999,
        "REV_AT_EPOCH": 20464,
        "BSTAR": 0.00025319495,
        "MEAN_MOTION_DOT": 1.13e-06,
        "MEAN_MOTION_DDOT": 0
    },
    {
        "OBJECT_NAME": "ONEWEB-0327",
        "OBJECT_ID": "2021-083L",
        "EPOCH": "2025-12-06T19:21:52.294464",
        "MEAN_MOTION": 13.186854,
        "ECCENTRICITY": 0.00019186,
        "INCLINATION": 87.9175,
        "RA_OF_ASC_NODE": 13.683,
        "ARG_OF_PERICENTER": 106.3177,
        "MEAN_ANOMALY": 253.8166,
        "EPHEMERIS_TYPE": 0,
        "CLASSIFICATION_TYPE": "U",
        "NORAD_CAT_ID": 49196,
        "ELEMENT_SET_NO": 999,
        "REV_AT_EPOCH": 20466,
        "BSTAR": 0.00021895728,
        "MEAN_MOTION_DOT": 9.9e-07,
        "MEAN_MOTION_DDOT": 0
    },
    {
        "OBJECT_NAME": "ONEWEB-0328",
        "OBJECT_ID": "2021-083M",
        "EPOCH": "2025-12-06T19:07:25.179744",
        "MEAN_MOTION": 13.13471301,
        "ECCENTRICITY": 0.0001611,
        "INCLINATION": 87.8987,
        "RA_OF_ASC_NODE": 358.4407,
        "ARG_OF_PERICENTER": 90.8512,
        "MEAN_ANOMALY": 269.2802,
        "EPHEMERIS_TYPE": 0,
        "CLASSIFICATION_TYPE": "U",
        "NORAD_CAT_ID": 49197,
        "ELEMENT_SET_NO": 999,
        "REV_AT_EPOCH": 20564,
        "BSTAR": 0.00033623229,
        "MEAN_MOTION_DOT": 1.36e-06,
        "MEAN_MOTION_DDOT": 0
    }
]